NORAD_CAT_ID,OBJECT_NAME,OBJECT_TYPE,EPOCH,MEAN_MOTION,ECCENTRICITY,INCLINATION,RA_OF_ASC_NODE,ARG_OF_PERICENTER,MEAN_ANOMALY,BSTAR,MEAN_MOTION_DOT,MEAN_MOTION_DDOT,TLE_LINE0,TLE_LINE1,TLE_LINE2,SEMIMAJOR_AXIS,PERIOD,APOGEE,PERIGEE,DECAYED
51116.0,STARLINK-3243,PAYLOAD,2022-07-31 15:27:22,15.08845355,0.0002068,53.2179,81.5607,62.7184,297.4018,5.4546e-05,5.8e-06,0.0,0 STARLINK-3243,1 51116U 22005N   22212.64400724  .00000580  00000-0  54546-4 0  9990,2 51116  53.2179  81.5607 0002068  62.7184 297.4018 15.08845355 30046,6917.864000000001,95.437,541.16,538.298,0.0
51116.0,STARLINK-3243,PAYLOAD,2022-08-01 00:59:40,15.08843567,0.0002091,53.2178,79.7769,62.7589,297.3616,0.00015991,2.258e-05,0.0,0 STARLINK-3243,1 51116U 22005N   22213.04144565  .00002258  00000-0  15991-3 0  9997,2 51116  53.2178  79.7769 0002091  62.7589 297.3616 15.08843567 30101,6917.869000000002,95.437,541.181,538.288,0.0
51116.0,STARLINK-3243,PAYLOAD,2022-08-01 15:18:10,15.08831129,0.0002117,53.2177,77.1004,64.1611,295.9599,2.153e-05,5.4e-07,0.0,0 STARLINK-3243,1 51116U 22005N   22213.63761878  .00000054  00000-0  21530-4 0  9993,2 51116  53.2177  77.1004 0002117  64.1611 295.9599 15.08831129 31303,6917.908,95.438,541.237,538.308,0.0
51116.0,STARLINK-3243,PAYLOAD,2022-08-01 21:39:42,15.08837145,0.0002133,53.2177,75.9109,65.1648,294.9566,3.7235e-05,3.04e-06,0.0,0 STARLINK-3243,1 51116U 22005N   22213.90257489  .00000304  00000-0  37235-4 0  9998,2 51116  53.2177  75.9109 0002133  65.1648 294.9566 15.08837145 30232,6917.889,95.438,541.23,538.279,0.0
51116.0,STARLINK-3243,PAYLOAD,2022-08-02 00:50:28,15.08836745,0.0002139,53.2176,75.3162,65.0111,295.1103,2.4791e-05,1.06e-06,0.0,0 STARLINK-3243,1 51116U 22005N   22214.03505534  .00000106  00000-0  24791-4 0  9993,2 51116  53.2176  75.3162 0002139  65.0111 295.1103 15.08836745 30251,6917.89,95.438,541.235,538.276,0.0
51116.0,STARLINK-3243,PAYLOAD,2022-08-03 07:02:47,15.08843128,0.0002112999999999,53.2177,69.666,64.4164,295.7046,6.529800000000001e-06,-1.84e-06,0.0,0 STARLINK-3243,1 51116U 22005N   22215.29361041 -.00000184  00000-0  65298-5 0  9990,2 51116  53.2177  69.6660 0002113  64.4164 295.7046 15.08843128 30440,6917.871,95.437,541.198,538.274,0.0
51116.0,STARLINK-3243,PAYLOAD,2022-08-03 14:59:44,15.08832449,0.0002249,53.2169,68.1803,69.5747,290.5487,3.277e-05,2.33e-06,0.0,0 STARLINK-3243,1 51116U 22005N   22215.62481849  .00000233  00000-0  32770-4 0  9998,2 51116  53.2169  68.1803 0002249  69.5747 290.5487 15.08832449 30498,6917.903,95.438,541.3240000000002,538.2130000000002,0.0
51116.0,STARLINK-3243,PAYLOAD,2022-08-04 13:15:08,15.08839276,0.0002206,53.2167,64.0167,69.9263,290.1966,3.8306e-05,3.21e-06,0.0,0 STARLINK-3243,1 51116U 22005N   22216.55217643  .00000321  00000-0  38306-4 0  9999,2 51116  53.2167  64.0167 0002206  69.9263 290.1966 15.08839276 30633,6917.8830000000025,95.438,541.274,538.222,0.0
51116.0,STARLINK-3243,PAYLOAD,2022-08-04 14:50:31,15.08839645,0.0002104,53.2177,63.719,68.5247,291.5969,4.4947e-06,-2.17e-06,0.0,0 STARLINK-3243,1 51116U 22005N   22216.61841734 -.00000217  00000-0  44947-5 0  9994,2 51116  53.2177  63.7190 0002104  68.5247 291.5969 15.08839645 30649,6917.880999999999,95.438,541.202,538.2909999999998,0.0
51116.0,STARLINK-3243,PAYLOAD,2022-08-05 13:05:54,15.08854353,0.000208,53.2181,59.5558,64.0116,296.1090000000001,-3.7488e-05,-8.85e-06,0.0,0 STARLINK-3243,1 51116U 22005N   22217.54576707 -.00000885  00000-0 -37488-4 0  9995,2 51116  53.2181  59.5558 0002080  64.0116 296.1090 15.08854353 30788,6917.837,95.437,541.14,538.263,0.0
51116.0,STARLINK-3243,PAYLOAD,2022-08-05 14:41:17,15.08842307,0.0002018,53.2178,59.2585,65.9047,294.2156,0.00015757,2.221e-05,0.0,0 STARLINK-3243,1 51116U 22005N   22217.61201094  .00002221  00000-0  15757-3 0  9995,2 51116  53.2178  59.2585 0002018  65.9047 294.2156 15.08842307 30794,6917.873000000001,95.437,541.134,538.342,0.0
51116.0,STARLINK-3243,PAYLOAD,2022-08-06 12:56:42,15.08837576,0.0001986999999999,53.2176,55.0953,66.4391,293.6809,4.5099e-05,4.3e-06,0.0,0 STARLINK-3243,1 51116U 22005N   22218.53937839  .00000430  00000-0  45099-4 0  9993,2 51116  53.2176  55.0953 0001987  66.4391 293.6809 15.08837576 32047,6917.888000000001,95.438,541.127,538.378,0.0
51116.0,STARLINK-3243,PAYLOAD,2022-08-06 19:18:14,15.08841292,0.0002031,53.2145,53.9032,76.0506,284.0712,7.077300000000001e-05,8.38e-06,0.0,0 STARLINK-3243,1 51116U 22005N   22218.80433565  .00000838  00000-0  70773-4 0  9999,2 51116  53.2145  53.9032 0002031  76.0506 284.0712 15.08841292 30971,6917.876,95.437,541.146,538.336,0.0
51116.0,STARLINK-3243,PAYLOAD,2022-08-07 06:25:56,15.0884664,0.000222,53.217,51.8238,75.2594,284.8644,2.518e-05,1.13e-06,0.0,0 STARLINK-3243,1 51116U 22005N   22219.26801321  .00000113  00000-0  25180-4 0  9997,2 51116  53.2170  51.8238 0002220  75.2594 284.8644 15.08846640 32158,6917.86,95.437,541.261,538.189,0.0
51116.0,STARLINK-3243,PAYLOAD,2022-08-07 12:47:28,15.0884804,0.0002254,53.2163,50.6339,77.2541,282.8703,2.9141e-05,1.76e-06,0.0,0 STARLINK-3243,1 51116U 22005N   22219.53297171  .00000176  00000-0  29141-4 0  9999,2 51116  53.2163  50.6339 0002254  77.2541 282.8703 15.08848040 31081,6917.856,95.437,541.28,538.1619999999998,0.0
51116.0,STARLINK-3243,PAYLOAD,2022-08-07 19:09:02,15.08831461,0.0002259,53.2183,49.4451,80.2486,279.8761,7.4915e-05,9.04e-06,0.0,0 STARLINK-3243,1 51116U 22005N   22219.79794115  .00000904  00000-0  74915-4 0  9995,2 51116  53.2183  49.4451 0002259  80.2486 279.8761 15.08831461 32238,6917.906,95.438,541.3340000000002,538.2090000000002,0.0
51116.0,STARLINK-3243,PAYLOAD,2022-08-08 06:16:43,15.08840354,0.0001889,53.2181,47.3638,69.6278,290.4917,9.2699e-05,1.187e-05,0.0,0 STARLINK-3243,1 51116U 22005N   22220.26161501  .00001187  00000-0  92699-4 0  9999,2 51116  53.2181  47.3638 0001889  69.6278 290.4917 15.08840354 31195,6917.879,95.438,541.0509999999998,538.438,0.0
51116.0,STARLINK-3243,PAYLOAD,2022-08-08 15:49:01,15.08848546,0.0001847,53.2181,45.5796,67.4661,292.6526,0.00010082,1.317e-05,0.0,0 STARLINK-3243,1 51116U 22005N   22220.65904924  .00001317  00000-0  10082-3 0  9996,2 51116  53.2181  45.5796 0001847  67.4661 292.6526 15.08848546 31254,6917.854,95.437,540.997,538.442,0.0
51116.0,STARLINK-3243,PAYLOAD,2022-08-08 22:10:34,15.08851486,0.0001921999999999,53.2181,44.3897,72.1788,287.9414,0.00013297,1.829e-05,0.0,0 STARLINK-3243,1 51116U 22005N   22220.92400561  .00001829  00000-0  13297-3 0  9993,2 51116  53.2181  44.3897 0001922  72.1788 287.9414 15.08851486 31294,6917.845,95.437,541.04,538.381,0.0
51116.0,STARLINK-3243,PAYLOAD,2022-08-09 20:25:58,15.08837601,0.0001895,53.2178,40.2267,69.7335,290.3861,9.1621e-05,1.17e-05,0.0,0 STARLINK-3243,1 51116U 22005N   22221.85137429  .00001170  00000-0  91621-4 0  9993,2 51116  53.2178  40.2267 0001895  69.7335 290.3861 15.08837601 31438,6917.888000000001,95.438,541.064,538.442,0.0
51116.0,STARLINK-3243,PAYLOAD,2022-08-09 23:36:45,15.0883318,0.0001766,53.2183,39.6322,66.6951,293.4226,3.4989e-05,2.69e-06,0.0,0 STARLINK-3243,1 51116U 22005N   22221.98385735  .00000269  00000-0  34989-4 0  9994,2 51116  53.2183  39.6322 0001766  66.6951 293.4226 15.08833180 32567,6917.901,95.438,540.988,538.545,0.0
51116.0,STARLINK-3243,PAYLOAD,2022-08-10 12:19:51,15.08826873,0.0001843,53.2184,37.2552,58.2109,301.9063,-8.806100000000001e-05,-1.689e-05,0.0,0 STARLINK-3243,1 51116U 22005N   22222.51378739 -.00001689  00000-0 -88061-4 0  9999,2 51116  53.2184  37.2552 0001843  58.2109 301.9063 15.08826873 32649,6917.920999999999,95.438,541.06,538.511,0.0
51116.0,STARLINK-3243,PAYLOAD,2022-08-10 20:16:46,15.08831695,0.0001794,53.2187,35.7681,61.9406,298.1768,-0.00014351,-2.571e-05,0.0,0 STARLINK-3243,1 51116U 22005N   22222.84498772 -.00002571  00000-0 -14351-3 0  9996,2 51116  53.2187  35.7681 0001794  61.9406 298.1768 15.08831695 31583,6917.906,95.438,541.012,538.53,0.0
51116.0,STARLINK-3243,PAYLOAD,2022-08-11 04:13:42,15.08828138,0.0001561,53.2187,34.2804,60.9313,299.1835,-2.1903e-05,-6.36e-06,0.0,0 STARLINK-3243,1 51116U 22005N   22223.17618785 -.00000636  00000-0 -21903-4 0  9993,2 51116  53.2187  34.2804 0001561  60.9313 299.1835 15.08828138 31632,6917.917,95.438,540.862,538.702,0.0
51116.0,STARLINK-3243,PAYLOAD,2022-08-11 18:32:10,15.08837269,0.000155,53.2186,31.604,64.8059,295.3094,-4.5234e-06,-3.6000000000000007e-06,0.0,0 STARLINK-3243,1 51116U 22005N   22223.77234589 -.00000360  00000-0 -45234-5 0  9993,2 51116  53.2186  31.6040 0001550  64.8059 295.3094 15.08837269 32835,6917.889,95.438,540.826,538.681,0.0
51116.0,STARLINK-3243,PAYLOAD,2022-08-12 12:01:24,15.08839004,0.0001576999999999,53.2187,28.3329,64.34100000000001,295.7745,0.00021704,3.168e-05,0.0,0 STARLINK-3243,1 51116U 22005N   22224.50098245  .00003168  00000-0  21704-3 0  9993,2 51116  53.2187  28.3329 0001577  64.3410 295.7745 15.08839004 31839,6917.8830000000025,95.438,540.839,538.6569999999998,0.0
51116.0,STARLINK-3243,PAYLOAD,2022-08-12 16:47:34,15.08846769,0.0001578,53.2179,27.4405,63.6336,296.4818,0.00033252,5.009e-05,0.0,0 STARLINK-3243,1 51116U 22005N   22224.69970261  .00005009  00000-0  33252-3 0  9997,2 51116  53.2179  27.4405 0001578  63.6336 296.4818 15.08846769 32976,6917.86,95.437,540.816,538.633,0.0
51116.0,STARLINK-3243,PAYLOAD,2022-08-12 18:22:57,15.08848392,0.0001583,53.2179,27.1431,63.701,296.4145,0.00035538,5.374e-05,0.0,0 STARLINK-3243,1 51116U 22005N   22224.76594221  .00005374  00000-0  35538-3 0  9997,2 51116  53.2179  27.1431 0001583  63.7010 296.4145 15.08848392 31873,6917.855,95.437,540.815,538.625,0.0
51116.0,STARLINK-3243,PAYLOAD,2022-08-13 13:27:34,15.08848991,0.0001594,53.2175,23.5746,64.6508,295.4649,0.00017959,2.572e-05,0.0,0 STARLINK-3243,1 51116U 22005N   22225.56082012  .00002572  00000-0  17959-3 0  9990,2 51116  53.2175  23.5746 0001594  64.6508 295.4649 15.08848991 31998,6917.853,95.437,540.821,538.615,0.0
